YAOGAN-43 01G           
1 60464U 24148G   26068.44348481  .00010133  00000+0  35873-3 0  9993
2 60464  35.0006  62.0013 0007382 306.3543  53.6492 15.28332833 87004
STARLINK-34101          
1 63812U 25092J   26068.32647524  .00031431  00000+0  11467-2 0  9995
2 63812  42.9969 174.2005 0000652 231.9455 128.1338 15.27584887 48500
