[{"OBJECT_NAME":"YAOGAN-43 01G","OBJECT_ID":"2024-148G","EPOCH":"2026-03-09T10:38:37.087584","MEAN_MOTION":15.28332833,"ECCENTRICITY":0.00073829,"INCLINATION":35.0006,"RA_OF_ASC_NODE":62.0013,"ARG_OF_PERICENTER":306.3543,"MEAN_ANOMALY":53.6492,"EPHEMERIS_TYPE":0,"CLASSIFICATION_TYPE":"U","NORAD_CAT_ID":60464,"ELEMENT_SET_NO":999,"REV_AT_EPOCH":8700,"BSTAR":0.00035872736,"MEAN_MOTION_DOT":0.00010133,"MEAN_MOTION_DDOT":0},{"OBJECT_NAME":"STARLINK-34101","OBJECT_ID":"2025-092J","EPOCH":"2026-03-09T07:50:07.460736","MEAN_MOTION":15.27584887,"ECCENTRICITY":6.526e-5,"INCLINATION":42.9969,"RA_OF_ASC_NODE":174.2005,"ARG_OF_PERICENTER":231.9455,"MEAN_ANOMALY":128.1338,"EPHEMERIS_TYPE":0,"CLASSIFICATION_TYPE":"U","NORAD_CAT_ID":63812,"ELEMENT_SET_NO":999,"REV_AT_EPOCH":4850,"BSTAR":0.0011466569,"MEAN_MOTION_DOT":0.00031431,"MEAN_MOTION_DDOT":0}]
